ONEWEB-0456             
1 51646U 22012AA  25085.58295187 -.00000290  00000+0 -86698-3 0  9996
2 51646  87.8816 125.4633 0002031  91.2031 268.9329 13.10369567150723
ONEWEB-0457             
1 51647U 22012AB  25085.48337297  .00000729  00000+0  20514-2 0  9994
2 51647  87.8828 125.5304 0001925 108.4886 251.6450 13.10372896150715
ONEWEB-0458             
1 51648U 22012AC  25085.50494586 -.00000150  00000+0 -46498-3 0  9993
2 51648  87.8811 125.5197 0002121  97.2475 262.8894 13.10370928150671
ONEWEB-0461             
1 51649U 22012AD  25085.50944629  .00000061  00000+0  12287-3 0  9990
2 51649  87.9000  95.0209 0001888  92.5225 267.6122 13.17650700154934
ONEWEB-0463             
1 51650U 22012AE  25085.49088590  .00000093  00000+0  20632-3 0  9994
2 51650  87.9005  95.0838 0002012  93.1253 267.0109 13.17650902154716
ONEWEB-0464             
1 51651U 22012AF  25085.34890896  .00000015  00000+0  70167-5 0  9993
2 51651  87.8828 125.5650 0002119  87.9456 272.1914 13.10370236150678
ONEWEB-0468             
1 51652U 22012AG  25085.35553875 -.00000392  00000+0 -11607-2 0  9999
2 51652  87.8829 125.5556 0002031  96.2250 263.9109 13.10370222150650
ONEWEB-0473             
1 51653U 22012AH  25085.49332750  .00000380  00000+0  10521-2 0  9991
2 51653  87.8827 125.5316 0002143  96.8243 263.3128 13.10370084150678
ONEWEB-0474             
1 51654U 22012AJ  25085.48503283  .00000677  00000+0  19035-2 0  9990
2 51654  87.8820 125.5041 0002227  92.6713 267.4669 13.10372410150665
ONEWEB-0475             
1 51655U 22012AK  25085.50268792  .00000048  00000+0  89519-4 0  9995
2 51655  87.9005  95.0611 0002785  88.9298 271.2152 13.17652421154733
ONEWEB-0490             
1 54113U 22138A   25085.58805314  .00000063  00000+0  12399-3 0  9999
2 54113  87.9226  33.9144 0002011  76.5475 283.5881 13.19727209117793
ONEWEB-0492             
1 54114U 22138B   25085.38586363 -.00000027  00000+0 -98715-4 0  9997
2 54114  87.9229  33.9729 0001858  73.2125 286.9212 13.19727952117778
ONEWEB-0495             
1 54115U 22138C   25085.59121898  .00000070  00000+0  14139-3 0  9992
2 54115  87.9231  33.9436 0002504  68.7473 291.3927 13.19725712117787
ONEWEB-0497             
1 54116U 22138D   25085.60385630 -.00000004  00000+0 -41288-4 0  9996
2 54116  87.9229  33.9169 0002000  77.3815 282.7541 13.19726122117776
ONEWEB-0499             
1 54117U 22138E   25085.58648242  .00000092  00000+0  19830-3 0  9997
2 54117  87.9235  33.9342 0002305  85.2150 274.9246 13.19726817117782
ONEWEB-0500             
1 54118U 22138F   25085.58963797  .00000040  00000+0  67438-4 0  9994
2 54118  87.9229  33.9210 0001904  79.3858 280.7489 13.19727585117791
ONEWEB-0501             
1 54119U 22138G   25085.54382153  .00000061  00000+0  12016-3 0  9996
2 54119  87.9227  33.9246 0002337  74.0049 286.1341 13.19728638117768
ONEWEB-0502             
1 54120U 22138H   25085.60542113 -.00000250  00000+0 -65615-3 0  9994
2 54120  87.9226  33.8979 0002235  78.9933 281.1451 13.19724716117796
ONEWEB-0503             
1 54121U 22138J   25085.59436615  .00000010  00000+0 -74603-5 0  9994
2 54121  87.9225  33.9053 0002084  89.2080 270.9292 13.19728089117785
ONEWEB-0504             
1 54122U 22138K   25085.58174371  .00000072  00000+0  14699-3 0  9996
2 54122  87.9231  33.9203 0002307  81.3741 278.7653 13.19727236117796
ONEWEB-0505             
1 54123U 22138L   25085.57858698  .00000160  00000+0  36832-3 0  9998
2 54123  87.9229  33.9118 0002584  75.4521 284.6898 13.19727049117773
ONEWEB-0506             
1 54124U 22138M   25085.55330271  .00000115  00000+0  25384-3 0  9999
2 54124  87.9227  33.9139 0002105  78.0677 282.0691 13.19727090117763
ONEWEB-0507             
1 54125U 22138N   25085.57382572 -.00000248  00000+0 -65195-3 0  9996
2 54125  87.9237  33.9549 0002111  75.4132 284.7234 13.19725384117816
ONEWEB-0508             
1 54126U 22138P   25085.57068772  .00000055  00000+0  10439-3 0  9995
2 54126  87.9233  33.9410 0002161  70.4114 289.7252 13.19727295117795
ONEWEB-0509             
1 54127U 22138Q   25085.54540299  .00000071  00000+0  14576-3 0  9996
2 54127  87.9226  33.9139 0002050  77.9554 282.1808 13.19728203117764
ONEWEB-0510             
1 54128U 22138R   25085.48459819  .00000161  00000+0  36345-3 0  9995
2 54128  87.9338   3.5461 0001603  77.6269 282.5043 13.20775215120185
ONEWEB-0511             
1 54129U 22138S   25085.54224037  .00000041  00000+0  69336-4 0  9999
2 54129  87.9225  33.9196 0002170  87.6199 272.5182 13.19728338117794
ONEWEB-0512             
1 54130U 22138T   25085.61016961 -.00000008  00000+0 -51534-4 0  9990
2 54130  87.9237  33.9443 0002381  77.5028 282.6370 13.19724279117776
ONEWEB-0513             
1 54131U 22138U   25085.57522303  .00000083  00000+0  17285-3 0  9993
2 54131  87.9236  33.9360 0002452  81.3813 278.7598 13.20254382117658
ONEWEB-0514             
1 54132U 22138V   25085.55013966 -.00000170  00000+0 -45592-3 0  9993
2 54132  87.9227  33.9286 0001961  82.1331 278.0025 13.19724663117788
ONEWEB-0515             
1 54133U 22138W   25085.32045834  .00000096  00000+0  20392-3 0  9994
2 54133  87.9337   3.5555 0000946  63.6224 296.5006 13.20775352120185
ONEWEB-0516             
1 54134U 22138X   25085.60068120  .00000102  00000+0  22350-3 0  9993
2 54134  87.9235  33.9488 0001955  76.0499 284.0851 13.19728359117794
ONEWEB-0517             
1 54135U 22138Y   25085.35271022  .00000134  00000+0  30265-3 0  9992
2 54135  87.9230  33.9633 0002141  89.5722 270.5656 13.19727653117764
ONEWEB-0518             
1 54136U 22138Z   25085.59910876  .00000054  00000+0  10271-3 0  9992
2 54136  87.9235  33.9451 0002030  82.5607 277.5756 13.19727935117794
ONEWEB-0519             
1 54137U 22138AA  25085.54855793  .00000114  00000+0  25228-3 0  9999
2 54137  87.9228  33.9176 0002087  86.8733 273.2638 13.19729193117790
ONEWEB-0520             
1 54138U 22138AB  25085.58331867 -.00000496  00000+0 -12722-2 0  9994
2 54138  87.9227  33.9143 0002204  73.8090 286.3285 13.19727497117784
ONEWEB-0521             
1 54139U 22138AC  25085.38903163 -.00000197  00000+0 -52344-3 0  9990
2 54139  87.9224  33.9415 0001893  88.4615 271.6735 13.19725692117706
ONEWEB-0522             
1 54140U 22138AD  25085.59595328  .00000058  00000+0  11162-3 0  9992
2 54140  87.9225  33.9020 0001926  76.3919 283.7428 13.19727583117772
ONEWEB-0523             
1 54141U 22138AE  25085.45935237  .00000071  00000+0  14172-3 0  9994
2 54141  87.9337   3.5579 0001105  99.5303 260.5955 13.20774342120209
ONEWEB-0524             
1 54142U 22138AF  25085.52406038 -.00000057  00000+0 -17191-3 0  9995
2 54142  87.9336   3.5472 0001202  51.3280 308.7961 13.20774253120213
ONEWEB-0525             
1 54143U 22138AG  25085.38745333  .00000083  00000+0  17623-3 0  9991
2 54143  87.9228  33.9599 0002247  76.1490 283.9893 13.19726430117765
ONEWEB-0526             
1 54144U 22138AH  25085.57226946  .00000083  00000+0  17618-3 0  9991
2 54144  87.9227  33.9133 0001969  77.3277 282.8075 13.19726558117766
ONEWEB-0529             
1 54145U 22138AJ  25085.57540324 -.00000286  00000+0 -74689-3 0  9999
2 54145  87.9235  33.9485 0002160  75.3192 284.8180 13.19725103117780
ONEWEB-0531             
1 54146U 22138AK  25085.50985134  .00000028  00000+0  37559-4 0  9993
2 54146  87.9336   3.5435 0000916  87.0822 273.0416 13.20774614120215
ONEWEB-0535             
1 54147U 22138AL  25085.60857482 -.00000068  00000+0 -20095-3 0  9991
2 54147  87.9227  33.9026 0001682  84.5224 275.6101 13.19728156117805
ONEWEB-0536             
1 54148U 22138AM  25085.49722999  .00000027  00000+0  34633-4 0  9990
2 54148  87.9337   3.5923 0000753  75.4946 284.6270 13.20773917120207
ONEWEB-0527             
1 54642U 22166A   25085.42713057  .00000107  00000+0  22757-3 0  9990
2 54642  87.9320 333.2769 0001707  76.8811 283.2513 13.21828247112388
ONEWEB-0528             
1 54643U 22166B   25085.43343400  .00000063  00000+0  12191-3 0  9995
2 54643  87.9324 333.2720 0001840  76.6766 283.4573 13.21828858112392
ONEWEB-0539             
1 54644U 22166C   25085.39401590  .00000085  00000+0  17432-3 0  9993
2 54644  87.9306 333.2760 0001922  82.9454 277.1898 13.21823550112385
ONEWEB-0540             
1 54645U 22166D   25085.40033494  .00000088  00000+0  18075-3 0  9997
2 54645  87.9320 333.2917 0001990  83.3605 276.7755 13.21826706112376
ONEWEB-0542             
1 54646U 22166E   25085.17638928  .00000162  00000+0  36066-3 0  9998
2 54646  87.9305 333.3175 0001960  91.2544 268.8815 13.21828392112354
ONEWEB-0545             
1 54647U 22166F   25085.44609735 -.00002466  00000+0 -60069-2 0  9993
2 54647  87.9317 333.2669 0002132  91.7674 268.3704 13.21802339112351
ONEWEB-0580             
1 54648U 22166G   25085.41924097 -.00000265  00000+0 -67312-3 0  9996
2 54648  87.9321 333.2618 0001873  93.5794 266.5554 13.21826276112398
ONEWEB-0582             
1 54649U 22166H   25085.61321365  .00000006  00000+0 -17147-4 0  9992
2 54649  87.9302 333.2437 0001995  98.3652 261.7708 13.21828754112399
ONEWEB-0583             
1 54650U 22166J   25085.39716540 -.00000266  00000+0 -67633-3 0  9995
2 54650  87.9319 333.2902 0001881  83.1189 277.0159 13.21826292112370
ONEWEB-0584             
1 54651U 22166K   25085.64476027  .00000066  00000+0  12866-3 0  9991
2 54651  87.9321 333.2211 0001816  95.3033 264.8308 13.21828332112397
ONEWEB-0585             
1 54652U 22166L   25085.44289529 -.00000016  00000+0 -69640-4 0  9999
2 54652  87.9312 333.2577 0001710  78.0775 282.0550 13.21828663112373
ONEWEB-0586             
1 54653U 22166M   25085.37983043  .00000074  00000+0  14831-3 0  9997
2 54653  87.9320 333.2860 0001908  85.6639 274.4713 13.21824592112362
ONEWEB-0587             
1 54654U 22166N   25085.38928688  .00000124  00000+0  26917-3 0  9997
2 54654  87.9317 333.2347 0001727  73.8222 286.3102 13.21824355112524
